[{"OBJECT_NAME":"OBJECT A","OBJECT_ID":"2025-310A","EPOCH":"2026-02-21T15:01:11.724096","MEAN_MOTION":14.75718788,"ECCENTRICITY":0.00037722,"INCLINATION":97.9674,"RA_OF_ASC_NODE":61.5806,"ARG_OF_PERICENTER":90.9436,"MEAN_ANOMALY":269.2206,"EPHEMERIS_TYPE":0,"CLASSIFICATION_TYPE":"U","NORAD_CAT_ID":67234,"ELEMENT_SET_NO":999,"REV_AT_EPOCH":858,"BSTAR":9.699469e-6,"MEAN_MOTION_DOT":1.6e-7,"MEAN_MOTION_DDOT":0},{"OBJECT_NAME":"USA 58","OBJECT_ID":"1990-031C","EPOCH":"2026-03-09T14:12:58.888800","MEAN_MOTION":14.76275196,"ECCENTRICITY":0.0060635,"INCLINATION":89.8495,"RA_OF_ASC_NODE":265.0976,"ARG_OF_PERICENTER":299.7178,"MEAN_ANOMALY":59.8017,"EPHEMERIS_TYPE":0,"CLASSIFICATION_TYPE":"U","NORAD_CAT_ID":20562,"ELEMENT_SET_NO":999,"REV_AT_EPOCH":9895,"BSTAR":0.00013881,"MEAN_MOTION_DOT":1.006e-5,"MEAN_MOTION_DDOT":0}]
